STARLINK-32555          
1 61918U 24207G   26198.26233254  .00006709  00000+0  25308-3 0  9995
2 61918  43.0012 273.8668 0001396 261.3706  98.6987 15.27584805 94499
STARLINK-32547          
1 61919U 24207H   26198.26523656  .00007075  00000+0  26636-3 0  9996
2 61919  42.9989 269.5684 0001631 265.1053  94.9612 15.27583504 94534
STARLINK-32616          
1 61920U 24207J   26198.23454598  .00007190  00000+0  27050-3 0  9992
2 61920  42.9964 270.1935 0001483 277.3403  82.7280 15.27584082 94533
STARLINK-32605          
1 61921U 24207K   26198.28194070  .00006456  00000+0  24387-3 0  9998
2 61921  42.9985 269.6908 0001381 262.9625  97.1070 15.27585371 94543
STARLINK-32579          
1 61922U 24207L   26198.24691000  .00009220  00000+0  34400-3 0  9999
2 61922  42.9966 273.7481 0000985 240.9952 119.0801 15.27593665 94498
STARLINK-32537          
1 61923U 24207M   26198.26489728  .00008243  00000+0  30861-3 0  9995
2 61923  42.9991 273.8811 0000991 225.8488 134.2283 15.27591837 94490
STARLINK-32564          
1 61924U 24207N   26198.25847363  .00008053  00000+0  30172-3 0  9992
2 61924  42.9974 273.8307 0001233 188.6286 171.4544 15.27590903 94490
STARLINK-32536          
1 61925U 24207P   26198.26875556  .00007164  00000+0  26959-3 0  9999
2 61925  42.9996 273.9112 0001637 272.8028  87.2636 15.27582329 94497
STARLINK-32624          
1 61926U 24207Q   26198.25881088  .00010529  00000+0  39160-3 0  9993
2 61926  42.9997 269.5144 0001688 223.7052 136.3666 15.27577388 94547
STARLINK-32622          
1 61927U 24207R   26198.20113365  .00007582  00000+0  28469-3 0  9990
2 61927  42.9988 269.9458 0001387 238.6990 121.3726 15.27587126 94533
STARLINK-32620          
1 61928U 24207S   26198.23069030  .00006716  00000+0  25330-3 0  9995
2 61928  42.9979 270.1651 0001007 266.8187  93.2550 15.27587721 94536
STARLINK-32609          
1 61929U 24207T   26198.22297970  .00007665  00000+0  28771-3 0  9997
2 61929  42.9992 270.1082 0000762 227.4049 132.6739 15.27584604 94531
STARLINK-32567          
1 61930U 24207U   26198.17221107  .00010092  00000+0  37566-3 0  9992
2 61930  42.9979 267.1079 0004127 282.4295  77.6095 15.27583537 95159
STARLINK-32420          
1 61931U 24207V   26198.27423345  .00008169  00000+0  30598-3 0  9992
2 61931  42.9975 269.6316 0001876 274.2693  85.7944 15.27585070 94545
STARLINK-32354          
1 61932U 24207W   26198.25461978  .00006668  00000+0  25156-3 0  9991
2 61932  43.0016 273.8056 0001068 272.2949  87.7780 15.27587888 94984
STARLINK-32361          
1 61933U 24207X   26198.19101057  .00001289  00000+0  56390-4 0  9993
2 61933  42.9993 270.7123 0000995 319.9847  40.0931 15.27566526 94528
STARLINK-32500          
1 61935U 24207Z   26198.24305585  .00002255  00000+0  91443-4 0  9995
2 61935  42.9991 273.7188 0001481 274.7237  85.3445 15.27581105 94492
HAIYANG-4 01            
1 61936U 24208A   26198.27915998  .00000190  00000+0  37089-4 0  9997
2 61936  98.0037 205.6246 0002332  82.2211 277.9262 14.73283244 89870
STARLINK-11407 [DTC]    
1 61939U 24209A   26197.95549221  .00161588  00000+0  13115-2 0  9998
2 61939  53.1575  93.8056 0000867  44.5581 315.5507 15.69733236 97046
STARLINK-11337 [DTC]    
1 61940U 24209B   26198.07791789  .00164424  00000+0  13304-2 0  9994
2 61940  53.1579  93.1445 0000996 213.5573 146.5382 15.69798580 97045
STARLINK-11353 [DTC]    
1 61941U 24209C   26198.26402061  .00092327  00000+0  75704-3 0  9993
2 61941  53.1571  92.1683 0001051 125.6585 234.4531 15.69755794 97032
STARLINK-11320 [DTC]    
1 61942U 24209D   26198.00454389  .00049141  00000+0  40798-3 0  9997
2 61942  53.1575  94.1276 0000941 103.3131 256.7992 15.69715539 96988
STARLINK-11425 [DTC]    
1 61943U 24209E   26198.12697796  .00145615  00000+0  11837-2 0  9996
2 61943  53.1569  93.4664 0001064  84.4467 275.6673 15.69752180 97006
STARLINK-11422 [DTC]    
1 61944U 24209F   26198.12207303  .00132430  00000+0  10786-2 0  9991
2 61944  53.1571  93.4351 0000990  83.4360 276.6770 15.69753277 97008
STARLINK-11421 [DTC]    
1 61945U 24209G   26198.11716504  .00138192  00000+0  11243-2 0  9999
2 61945  53.1576  93.4046 0000798  29.0340 331.0722 15.69759082 97008
STARLINK-11410 [DTC]    
1 61946U 24209H   26198.17593228  .00111209  00000+0  90936-3 0  9999
2 61946  53.1577  93.0549 0001971  24.6504 335.4607 15.69740138 97058
STARLINK-11390 [DTC]    
1 61947U 24209J   26198.10735631  .00101215  00000+0  82899-3 0  9994
2 61947  53.1572  93.3383 0001224  53.7545 306.3586 15.69743214 97042
STARLINK-11414 [DTC]    
1 61948U 24209K   26198.21507355  .00090084  00000+0  73951-3 0  9997
2 61948  53.1570  92.5779 0001483  80.3362 279.7823 15.69737657 97064
STARLINK-11424 [DTC]    
1 61949U 24209L   26198.21997492  .00135310  00000+0  11011-2 0  9993
2 61949  53.1569  92.6102 0000991 122.1123 237.9991 15.69764339 97022
STARLINK-11423 [DTC]    
1 61950U 24209M   26197.97510633  .00119554  00000+0  97500-3 0  9995
2 61950  53.1582  93.9359 0001186 354.9319   5.1687 15.69771798 97020
