OBJECT_NAME,OBJECT_ID,EPOCH,MEAN_MOTION,ECCENTRICITY,INCLINATION,RA_OF_ASC_NODE,ARG_OF_PERICENTER,MEAN_ANOMALY,EPHEMERIS_TYPE,CLASSIFICATION_TYPE,NORAD_CAT_ID,ELEMENT_SET_NO,REV_AT_EPOCH,BSTAR,MEAN_MOTION_DOT,MEAN_MOTION_DDOT
STARLINK-32555,2024-207G,2026-07-17T06:17:45.531456,15.27584805,.00013964,43.0012,273.8668,261.3706,98.6987,0,U,61918,999,9449,.25308136E-3,.6709E-4,0
STARLINK-32547,2024-207H,2026-07-17T06:21:56.438784,15.27583504,.00016316,42.9989,269.5684,265.1053,94.9612,0,U,61919,999,9453,.26635876E-3,.7075E-4,0
STARLINK-32616,2024-207J,2026-07-17T05:37:44.772672,15.27584082,.00014834,42.9964,270.1935,277.3403,82.7280,0,U,61920,999,9453,.27049774E-3,.719E-4,0
STARLINK-32605,2024-207K,2026-07-17T06:45:59.676480,15.27585371,.00013811,42.9985,269.6908,262.9625,97.1070,0,U,61921,999,9454,.24387425E-3,.6456E-4,0
STARLINK-32579,2024-207L,2026-07-17T05:55:33.024000,15.27593665,.00009857,42.9966,273.7481,240.9952,119.0801,0,U,61922,999,9449,.34399675E-3,.922E-4,0
STARLINK-32537,2024-207M,2026-07-17T06:21:27.124992,15.27591837,.00009917,42.9991,273.8811,225.8488,134.2283,0,U,61923,999,9449,.30860768E-3,.8243E-4,0
STARLINK-32564,2024-207N,2026-07-17T06:12:12.121632,15.27590903,.00012331,42.9974,273.8307,188.6286,171.4544,0,U,61924,999,9449,.30172231E-3,.8053E-4,0
STARLINK-32536,2024-207P,2026-07-17T06:27:00.480384,15.27582329,.00016373,42.9996,273.9112,272.8028,87.2636,0,U,61925,999,9449,.26958597E-3,.7164E-4,0
STARLINK-32624,2024-207Q,2026-07-17T06:12:41.260032,15.27577388,.00016883,42.9997,269.5144,223.7052,136.3666,0,U,61926,999,9454,.39160363E-3,.10529E-3,0
STARLINK-32622,2024-207R,2026-07-17T04:49:37.947360,15.27587126,.00013872,42.9988,269.9458,238.6990,121.3726,0,U,61927,999,9453,.28469413E-3,.7582E-4,0
STARLINK-32620,2024-207S,2026-07-17T05:32:11.641920,15.27587721,.00010073,42.9979,270.1651,266.8187,93.2550,0,U,61928,999,9453,.25329513E-3,.6716E-4,0
STARLINK-32609,2024-207T,2026-07-17T05:21:05.446080,15.27584604,.00007627,42.9992,270.1082,227.4049,132.6739,0,U,61929,999,9453,.28771118E-3,.7665E-4,0
STARLINK-32567,2024-207U,2026-07-17T04:07:59.036448,15.27583537,.00041276,42.9979,267.1079,282.4295,77.6095,0,U,61930,999,9515,.37565516E-3,.10092E-3,0
STARLINK-32420,2024-207V,2026-07-17T06:34:53.770080,15.27585070,.00018767,42.9975,269.6316,274.2693,85.7944,0,U,61931,999,9454,.30598218E-3,.8169E-4,0
STARLINK-32354,2024-207W,2026-07-17T06:06:39.148992,15.27587888,.00010688,43.0016,273.8056,272.2949,87.7780,0,U,61932,999,9498,.25155807E-3,.6668E-4,0
STARLINK-32361,2024-207X,2026-07-17T04:35:03.313248,15.27566526,.00009954,42.9993,270.7123,319.9847,40.0931,0,U,61933,999,9452,.56390237E-4,.1289E-4,0
STARLINK-32500,2024-207Z,2026-07-17T05:50:00.025440,15.27581105,.00014817,42.9991,273.7188,274.7237,85.3445,0,U,61935,999,9449,.91442914E-4,.2255E-4,0
HAIYANG-4 01,2024-208A,2026-07-17T06:41:59.422272,14.73283244,.00023328,98.0037,205.6246,82.2211,277.9262,0,U,61936,999,8987,.37089073E-4,.19E-5,0
STARLINK-11407 [DTC],2024-209A,2026-07-16T22:55:54.526944,15.69733236,.00008679,53.1575,93.8056,44.5581,315.5507,0,U,61939,999,9704,.13115294E-2,.161588E-2,0
STARLINK-11337 [DTC],2024-209B,2026-07-17T01:52:12.105696,15.69798580,.00009967,53.1579,93.1445,213.5573,146.5382,0,U,61940,999,9704,.1330407E-2,.164424E-2,0
STARLINK-11353 [DTC],2024-209C,2026-07-17T06:20:11.380704,15.69755794,.00010513,53.1571,92.1683,125.6585,234.4531,0,U,61941,999,9703,.75703704E-3,.92327E-3,0
STARLINK-11320 [DTC],2024-209D,2026-07-17T00:06:32.592096,15.69715539,.00009417,53.1575,94.1276,103.3131,256.7992,0,U,61942,999,9698,.40797727E-3,.49141E-3,0
STARLINK-11425 [DTC],2024-209E,2026-07-17T03:02:50.895744,15.69752180,.00010642,53.1569,93.4664,84.4467,275.6673,0,U,61943,999,9700,.11837226E-2,.145615E-2,0
STARLINK-11422 [DTC],2024-209F,2026-07-17T02:55:47.109792,15.69753277,.00009905,53.1571,93.4351,83.4360,276.6770,0,U,61944,999,9700,.10786453E-2,.13243E-2,0
STARLINK-11421 [DTC],2024-209G,2026-07-17T02:48:43.059456,15.69759082,.00007988,53.1576,93.4046,29.0340,331.0722,0,U,61945,999,9700,.11243109E-2,.138192E-2,0
STARLINK-11410 [DTC],2024-209H,2026-07-17T04:13:20.548992,15.69740138,.00019711,53.1577,93.0549,24.6504,335.4607,0,U,61946,999,9705,.9093572E-3,.111209E-2,0
STARLINK-11390 [DTC],2024-209J,2026-07-17T02:34:35.585184,15.69743214,.00012241,53.1572,93.3383,53.7545,306.3586,0,U,61947,999,9704,.82898791E-3,.101215E-2,0
STARLINK-11414 [DTC],2024-209K,2026-07-17T05:09:42.354720,15.69737657,.00014831,53.1570,92.5779,80.3362,279.7823,0,U,61948,999,9706,.73950852E-3,.90084E-3,0
STARLINK-11424 [DTC],2024-209L,2026-07-17T05:16:45.833088,15.69764339,.00009912,53.1569,92.6102,122.1123,237.9991,0,U,61949,999,9702,.11011089E-2,.13531E-2,0
STARLINK-11423 [DTC],2024-209M,2026-07-16T23:24:09.186912,15.69771798,.00011869,53.1582,93.9359,354.9319,5.1687,0,U,61950,999,9702,.9750023E-3,.119554E-2,0
